{
    "links": {
        "self": "http://www.neowsapp.com/rest/v1/neo/3770155?api_key=iIulBulltgU6a56xZRHN4H3l9WmuAYTsLGpBGhQ2"
    },
    "id": "3770155",
    "neo_reference_id": "3770155",
    "name": "(2017 DW108)",
    "designation": "2017 DW108",
    "nasa_jpl_url": "http://ssd.jpl.nasa.gov/sbdb.cgi?sstr=3770155",
    "absolute_magnitude_h": 22.6,
    "estimated_diameter": {
        "kilometers": {
            "estimated_diameter_min": 0.0802703167,
            "estimated_diameter_max": 0.1794898848
        },
        "meters": {
            "estimated_diameter_min": 80.2703167283,
            "estimated_diameter_max": 179.4898847799
        },
        "miles": {
            "estimated_diameter_min": 0.049877647,
            "estimated_diameter_max": 0.1115298092
        },
        "feet": {
            "estimated_diameter_min": 263.3540659348,
            "estimated_diameter_max": 588.8775935812
        }
    },
    "is_potentially_hazardous_asteroid": false,
    "close_approach_data": [
        {
            "close_approach_date": "2017-03-07",
            "close_approach_date_full": "2017-Mar-07 15:32",
            "epoch_date_close_approach": 1488900720000,
            "relative_velocity": {
                "kilometers_per_second": "24.2301025608",
                "kilometers_per_hour": "87228.3692189351",
                "miles_per_hour": "54200.3164182877"
            },
            "miss_distance": {
                "astronomical": "0.0857680415",
                "lunar": "33.3637681435",
                "kilometers": "12830716.322471605",
                "miles": "7972637.426673949"
            },
            "orbiting_body": "Earth"
        },
        {
            "close_approach_date": "2017-03-25",
            "close_approach_date_full": "2017-Mar-25 21:12",
            "epoch_date_close_approach": 1490476320000,
            "relative_velocity": {
                "kilometers_per_second": "26.3393224563",
                "kilometers_per_hour": "94821.560842568",
                "miles_per_hour": "58918.4304024279"
            },
            "miss_distance": {
                "astronomical": "0.0137478418",
                "lunar": "5.3479104602",
                "kilometers": "2056647.850376966",
                "miles": "1277941.7152794908"
            },
            "orbiting_body": "Venus"
        }
    ],
    "orbital_data": {
        "orbit_id": "5",
        "orbit_determination_date": "2017-04-06 08:19:52",
        "first_observation_date": "2017-02-19",
        "last_observation_date": "2017-03-05",
        "data_arc_in_days": 14,
        "observations_used": 72,
        "orbit_uncertainty": "8",
        "minimum_orbit_intersection": ".0369278",
        "jupiter_tisserand_invariant": "2.923",
        "epoch_osculation": "2457809.5",
        "eccentricity": ".812338108798244",
        "semi_major_axis": "2.450122740399622",
        "inclination": "2.205345175019413",
        "ascending_node_longitude": "79.4889095978066",
        "orbital_period": "1400.813081018748",
        "perihelion_distance": ".4597946671398221",
        "perihelion_argument": "184.7989750206456",
        "aphelion_distance": "4.440450813659421",
        "perihelion_time": "2457864.145714218972",
        "mean_anomaly": "345.9564010463673",
        "mean_motion": ".256993602414241",
        "equinox": "J2000",
        "orbit_class": {
            "orbit_class_type": "APO",
            "orbit_class_description": "Near-Earth asteroid orbits which cross the Earth’s orbit similar to that of 1862 Apollo",
            "orbit_class_range": "a (semi-major axis) > 1.0 AU; q (perihelion) < 1.017 AU"
        }
    },
    "is_sentry_object": false
}